HELIOS 1B               
1 25977U 99064A   20319.39681696  .00000049  00000-0  13266-4 0  9996
2 25977  98.2980 119.6837 0001051 156.8809 203.2450 14.82506826397330
TERRA                   
1 25994U 99068A   20319.15030617  .00000073  00000-0  26319-4 0  9994
2 25994  98.2006  31.2526 0001224  89.1607 300.9119 14.57115135111992
SL-16 R/B               
1 26070U 00006B   20319.12689657  .00000225  00000-0  13937-3 0  9995
2 26070  71.0027 218.7301 0018772 257.9046 101.9974 14.15468443 73814
MTI                     
1 26102U 00014A   20319.61889703  .00008525  00000-0  11849-3 0  9999
2 26102  97.4810 209.2073 0008670  43.7992 316.3960 15.57222303147875
TITAN 4B R/B            
1 26474U 00047B   20319.35102406  .00000155  00000-0  24357-4 0  9996
2 26474  67.9951  23.0755 0053494  28.0309 332.3695 14.96015791101669
ENVISAT                 
1 27386U 02009A   20318.95515929  .00000042  00000-0  27281-4 0  9996
2 27386  98.1400 318.1651 0001288  93.0660 326.4679 14.37999229980030
IDEFIX & ARIANE 42P R/B 
1 27422U 02021B   20319.12589902 -.00000001  00000-0  15966-4 0  9996
2 27422  98.3721 274.1348 0012736 144.3055 215.8982 14.29298488966549
AQUA                    
1 27424U 02022A   20319.39083354  .00000121  00000-0  36924-4 0  9997
2 27424  98.2055 257.8035 0000401 180.8225 288.0470 14.57116378985702
CZ-4B R/B               
1 27432U 02024C   20318.98051006 -.00000007  00000-0  20027-4 0  9992
2 27432  99.0908 323.7337 0051313 114.1804 275.6905 14.14099493954786
MIDORI II (ADEOS-II)    
1 27597U 02056A   20319.11875485  .00000025  00000-0  27746-4 0  9994
2 27597  98.5375 263.0529 0000222  38.9683 321.1514 14.27467976933161
H-2A R/B                
1 27601U 02056E   20319.12852736  .00000110  00000-0  54546-4 0  9998
2 27601  98.2116 347.0941 0071977 190.8714 236.5987 14.31982040936116
CZ-4B R/B               
1 28059U 03049C   20319.34806599  .00000045  00000-0  22388-4 0  9995
2 28059  98.4853 237.5418 0050900  41.3051 319.1977 14.52618898904597
CZ-2C R/B               
1 28222U 04012C   20319.50830687  .00000514  00000-0  34632-4 0  9997
2 28222  97.6980 282.6251 0045626 235.7507 238.3035 15.10548698908643
SL-16 R/B               
1 28353U 04021B   20318.80243431 -.00000222  00000-0 -91470-4 0  9990
2 28353  71.0017 346.0985 0002519 123.4710 236.6654 14.14239078848257
CZ-4B R/B               
1 28415U 04035C   20319.10842679  .00000097  00000-0  10657-4 0  9993
2 28415  97.5962 358.9044 0050956 200.5467 159.3712 15.06946512886179
CZ-2C R/B               
1 28480U 04046B   20319.11133035 -.00000023  00000-0  59203-5 0  9998
2 28480  98.0651 342.3587 0142692 141.5237 286.3486 14.25731948831746
ARIANE 5 R/B            
1 28499U 04049H   20318.93349222  .00000108  00000-0  20526-4 0  9995
2 28499  98.0622  61.2404 0092819 149.5226 346.2251 14.80059994858201
CZ-2D R/B               
1 28738U 05024B   20318.93795984  .00000606  00000-0  38728-4 0  9991
2 28738  97.3742 336.4951 0012755  34.1339 326.0710 15.12150727843999
SUZAKU (ASTRO-EII)      
1 28773U 05025A   20318.91027101  .00001573  00000-0  71518-4 0  9996
2 28773  31.3809 124.6897 0004709 273.2176  86.7933 15.17814708846688
ALOS (DAICHI)           
1 28931U 06002A   20319.56715120  .00000189  00000-0  45675-4 0  9992
2 28931  97.8619 298.0665 0001455  31.2506 328.8773 14.62759190789649
H-2A R/B                
1 28932U 06002B   20318.97496568  .00000484  00000-0  50427-4 0  9998
2 28932  98.3304 317.5152 0088248 191.6777 221.4600 14.92338011803441
AKARI (ASTRO-F)         
1 28939U 06005A   20318.95951252  .00003562  00000-0  93890-4 0  9993
2 28939  98.2458 310.4587 0091889 159.9677 200.5209 15.35101156803823
RESURS-DK 1             
1 29228U 06021A   20318.93508447  .00000147  00000-0  18373-4 0  9994
2 29228  69.9341 167.4496 0007427 247.4276 112.6099 15.02590545795203
GENESIS 1               
1 29252U 06029A   20319.39806212  .00000726  00000-0  45113-4 0  9996
2 29252  64.5204 171.0995 0017523   6.6525 353.4828 15.18295738790869
CZ-4B R/B               
1 29507U 06046C   20318.99034561  .00000257  00000-0  24815-4 0  9998
2 29507  97.7220 340.2792 0049535  24.6543 335.7033 15.00565056767792
CZ-2C R/B               
1 31114U 07010B   20319.46146640  .00000050  00000-0  42028-4 0  9999
2 31114  98.2427 162.1441 0059471 188.7975 171.2165 14.19336116704283
COSMO-SKYMED 1          
1 31598U 07023A   20319.55371226  .00000361  00000-0  51947-4 0  9994
2 31598  97.8854 140.5441 0001439  94.6141 265.5225 14.82161160727069
GENESIS 2               
1 31789U 07028A   20319.43745332  .00000444  00000-0  32162-4 0  9991
2 31789  64.5027 212.8746 0034126 229.6120 130.2023 15.17420252737931
COSMOS 2428             
1 31792U 07029A   20319.29584512 -.00000234  00000-0 -10086-3 0  9990
2 31792  70.8957 318.1910 0009504 222.7073 137.3309 14.12255035689933
SL-16 R/B               
1 31793U 07029B   20319.28085957  .00000163  00000-0  11020-3 0  9997
2 31793  70.9744 291.6252 0001862 273.2398 183.8684 14.14433699690843
KORONAS-FOTON           
1 33504U 09003A   20318.90051786  .00000337  00000-0  15855-4 0  9998
2 33504  82.4427  74.1109 0020385 120.0403 240.2855 15.15759630650025
H-2A R/B                
1 38341U 12025E   20319.12756880  .00000278  00000-0  39916-4 0  9990
2 38341  98.5160 124.0077 0056580 110.7633 249.9654 14.84105762459562
CUSAT 2 & FALCON 9 R/B  
1 39271U 13055G   20319.46718753  .00005597  00000-0  13121-3 0  9999
2 39271  80.9635 105.4646 0582101  78.5839 288.0122 14.49825528372450
SL-4 R/B                
1 39679U 14021B   20318.90491821  .00000664  00000-0  49956-4 0  9993
2 39679  51.6142 133.7859 0172045 103.6950 258.3239 15.06589895361552
ALOS-2                  
1 39766U 14029A   20319.52081081  .00000123  00000-0  23353-4 0  9993
2 39766  97.9229  53.9722 0001458  94.9647 265.1821 14.79472079349883
CZ-2C R/B               
1 40306U 14071B   20319.14383433  .00005892  00000-0  12232-3 0  9997
2 40306  97.3422 267.1779 0014612 348.5067  11.5846 15.45976883336966
SL-27 R/B               
1 40354U 14084B   20319.17250922  .00001732  00000-0  42957-4 0  9990
2 40354  74.7381  78.2987 0037452 193.7072 166.3128 15.40500644331181
YAOGAN 29               
1 41038U 15069A   20319.55106902  .00000104  00000-0  20531-4 0  9990
2 41038  98.0235 307.3774 0002106  99.6045 260.5409 14.80468800268481
ASTRO-H (HITOMI)        
1 41337U 16012A   20319.18679023  .00000347  00000-0  21220-4 0  9994
2 41337  31.0043 140.3546 0012212 111.0781 249.1161 14.98732970259988
HXMT (HUIYAN)           
1 42758U 17034A   20319.40793659  .00000353  00000-0  35611-4 0  9990
2 42758  43.0184 293.3032 0011298 255.0013 241.5154 15.08949051188525
CZ-2C R/B               
1 43521U 18054D   20319.12892774  .00000970  00000-0  54436-4 0  9990
2 43521  35.1546 337.4480 0082518 357.5356   2.4944 15.11173051131809
AEOLUS                  
1 43600U 18066A   20318.78626743  .00061948  00000-0  24394-3 0  9994
2 43600  96.7173 322.9418 0007764  99.4094  81.5960 15.86664563129041
SAOCOM 1A               
1 43641U 18076A   20319.56211100  .00000098  00000-0  18861-4 0  9996
2 43641  97.8873 143.5457 0001414  82.4396 277.6984 14.82155922113831
CREW DRAGON DEMO-1 DEB  
1 44064U 19011B   20319.15697097  .00030693  00000-0  25610-3 0  9997
2 44064  51.6328 271.7472 0000809 250.3100 109.7810 15.69781754 96388
CZ-2F R/B               
1 46390U 20063B   20318.61756733  .00029441  00000-0  15395-3 0  9991
2 46390  50.2049  51.3667 0014034 250.7107 109.2357 15.80407723 11114
2020-063G               
1 46395U 20063G   20319.49354629  .00014677  00000-0  86040-4 0  9992
2 46395  50.2067  47.3778 0011264 246.1595 113.8205 15.78470347 11234
FALCON 9 R/B            
1 46803U 20074BS  20319.28341016  .02396066  12142-4  46240-3 0  9999
2 46803  53.0414  54.9331 0011251 356.1134   3.9519 16.30861842  3805
